[{"OBJECT_NAME":"BRO-11","OBJECT_ID":"2023-174J","EPOCH":"2026-03-09T23:01:09.890400","MEAN_MOTION":15.26267731,"ECCENTRICITY":0.00104518,"INCLINATION":97.3961,"RA_OF_ASC_NODE":146.7679,"ARG_OF_PERICENTER":189.9892,"MEAN_ANOMALY":170.1141,"EPHEMERIS_TYPE":0,"CLASSIFICATION_TYPE":"U","NORAD_CAT_ID":58264,"ELEMENT_SET_NO":999,"REV_AT_EPOCH":12961,"BSTAR":0.00032296323,"MEAN_MOTION_DOT":8.313e-5,"MEAN_MOTION_DDOT":0},{"OBJECT_NAME":"STARLINK-32655","OBJECT_ID":"2024-229L","EPOCH":"2026-03-09T00:05:52.182816","MEAN_MOTION":15.27575873,"ECCENTRICITY":0.00015851,"INCLINATION":42.9989,"RA_OF_ASC_NODE":274.8291,"ARG_OF_PERICENTER":276.7643,"MEAN_ANOMALY":83.3028,"EPHEMERIS_TYPE":0,"CLASSIFICATION_TYPE":"U","NORAD_CAT_ID":62202,"ELEMENT_SET_NO":999,"REV_AT_EPOCH":7045,"BSTAR":0.00091419138,"MEAN_MOTION_DOT":0.00024977,"MEAN_MOTION_DDOT":0}]
